DLR-TUBSAT              
1 25757U 99029B   26166.22672438  .00000061  00000+0  26896-4 0  9991
2 25757  98.6696 161.6663 0014175   1.2101 358.9126 14.52426415432966
DMSP 5D-3 F16 (USA 172) 
1 28054U 03048A   26166.18114176  .00000014  00000+0  30690-4 0  9990
2 28054  98.9891 189.9962 0007669 145.4577 261.2180 14.14483047169204
DMSP 5D-3 F17 (USA 191) 
1 29522U 06050A   26166.18977976  .00000035  00000+0  40414-4 0  9990
2 29522  98.7378 172.8007 0011216  64.6197 295.6137 14.14992901 12144
DEIMOS-1                
1 35681U 09041A   26166.21938722  .00000677  00000+0  10714-3 0  9997
2 35681  97.7393 323.5320 0001479 133.0038 227.1295 14.75236679906597
DUBAISAT-1              
1 35682U 09041B   26166.12194012  .00000626  00000+0  10028-3 0  9996
2 35682  98.0049 299.4024 0011698  79.6338 280.6189 14.75119894904799
DMSP 5D-3 F18 (USA 210) 
1 35951U 09057A   26166.16102635  .00000195  00000+0  12397-3 0  9998
2 35951  98.9037 146.9345 0009867 255.9666 104.0410 14.14895651859301
DEIMOS-2                
1 40013U 14033D   26166.17349644  .00000968  00000+0  96628-4 0  9995
2 40013  97.5836  40.7336 0001606  46.8088 313.3266 14.93719556637424
CYGFM05                 
1 41884U 16078A   26165.67827459  .00021186  00000+0  28816-3 0  9990
2 41884  34.9575 277.2022 0006760 125.1735 234.9624 15.56575412528360
CYGFM08                 
1 41888U 16078E   26165.95185981  .00026253  00000+0  31413-3 0  9999
2 41888  34.9431 256.1039 0008096 155.9928 204.1175 15.59919693528623
CYGFM07                 
1 41890U 16078G   26165.65516751  .00025184  00000+0  30057-3 0  9997
2 41890  34.9444 246.4236 0006750 170.4422 189.6433 15.60005273528601
