{
 "generated_at": "2026-06-15T10:55:27Z",
 "sources": [
  {
   "name": "CelesTrak",
   "url": "https://celestrak.org/NORAD/elements/",
   "license": "frei verfügbar; Attribution. Ursprünglich USSPACECOM/Space-Track."
  },
  {
   "name": "GCAT (J. McDowell, planet4589.org)",
   "url": "https://planet4589.org/space/gcat/",
   "license": "CC-BY 4.0"
  }
 ],
 "satellites": [
  {
   "norad": 41884,
   "name": "CYGFM05",
   "intl": "2016-078A",
   "group": "weather",
   "gcat": {
    "class": "C",
    "category": "EOSCI",
    "owner": "LARCN/SWRIB",
    "state": "US"
   },
   "omm": {
    "OBJECT_NAME": "CYGFM05",
    "OBJECT_ID": "2016-078A",
    "EPOCH": "2026-06-14T16:16:42.924576",
    "MEAN_MOTION": 15.56575412,
    "ECCENTRICITY": 0.00067604,
    "INCLINATION": 34.9575,
    "RA_OF_ASC_NODE": 277.2022,
    "ARG_OF_PERICENTER": 125.1735,
    "MEAN_ANOMALY": 234.9624,
    "EPHEMERIS_TYPE": 0,
    "CLASSIFICATION_TYPE": "U",
    "NORAD_CAT_ID": 41884,
    "ELEMENT_SET_NO": 999,
    "REV_AT_EPOCH": 52836,
    "BSTAR": 0.00028815569,
    "MEAN_MOTION_DOT": 0.00021186,
    "MEAN_MOTION_DDOT": 0
   }
  },
  {
   "norad": 41890,
   "name": "CYGFM07",
   "intl": "2016-078G",
   "group": "weather",
   "gcat": {
    "class": "C",
    "category": "EOSCI",
    "owner": "LARCN/SWRIB",
    "state": "US"
   },
   "omm": {
    "OBJECT_NAME": "CYGFM07",
    "OBJECT_ID": "2016-078G",
    "EPOCH": "2026-06-14T15:43:26.472864",
    "MEAN_MOTION": 15.60005273,
    "ECCENTRICITY": 0.00067508,
    "INCLINATION": 34.9444,
    "RA_OF_ASC_NODE": 246.4236,
    "ARG_OF_PERICENTER": 170.4422,
    "MEAN_ANOMALY": 189.6433,
    "EPHEMERIS_TYPE": 0,
    "CLASSIFICATION_TYPE": "U",
    "NORAD_CAT_ID": 41890,
    "ELEMENT_SET_NO": 999,
    "REV_AT_EPOCH": 52860,
    "BSTAR": 0.00030057152,
    "MEAN_MOTION_DOT": 0.00025184,
    "MEAN_MOTION_DDOT": 0
   }
  },
  {
   "norad": 41888,
   "name": "CYGFM08",
   "intl": "2016-078E",
   "group": "weather",
   "gcat": {
    "class": "C",
    "category": "EOSCI",
    "owner": "LARCN/SWRIB",
    "state": "US"
   },
   "omm": {
    "OBJECT_NAME": "CYGFM08",
    "OBJECT_ID": "2016-078E",
    "EPOCH": "2026-06-14T22:50:40.687584",
    "MEAN_MOTION": 15.59919693,
    "ECCENTRICITY": 0.0008096,
    "INCLINATION": 34.9431,
    "RA_OF_ASC_NODE": 256.1039,
    "ARG_OF_PERICENTER": 155.9928,
    "MEAN_ANOMALY": 204.1175,
    "EPHEMERIS_TYPE": 0,
    "CLASSIFICATION_TYPE": "U",
    "NORAD_CAT_ID": 41888,
    "ELEMENT_SET_NO": 999,
    "REV_AT_EPOCH": 52862,
    "BSTAR": 0.00031413,
    "MEAN_MOTION_DOT": 0.00026253,
    "MEAN_MOTION_DDOT": 0
   }
  },
  {
   "norad": 35681,
   "name": "DEIMOS-1",
   "intl": "2009-041A",
   "group": "resource",
   "gcat": {
    "class": "B",
    "category": "IMG",
    "owner": "DEIMOS",
    "state": "E"
   },
   "omm": {
    "OBJECT_NAME": "DEIMOS-1",
    "OBJECT_ID": "2009-041A",
    "EPOCH": "2026-06-15T05:15:55.055808",
    "MEAN_MOTION": 14.75236679,
    "ECCENTRICITY": 0.0001479,
    "INCLINATION": 97.7393,
    "RA_OF_ASC_NODE": 323.532,
    "ARG_OF_PERICENTER": 133.0038,
    "MEAN_ANOMALY": 227.1295,
    "EPHEMERIS_TYPE": 0,
    "CLASSIFICATION_TYPE": "U",
    "NORAD_CAT_ID": 35681,
    "ELEMENT_SET_NO": 999,
    "REV_AT_EPOCH": 90659,
    "BSTAR": 0.00010714,
    "MEAN_MOTION_DOT": 0.00000677,
    "MEAN_MOTION_DDOT": 0
   }
  },
  {
   "norad": 40013,
   "name": "DEIMOS-2",
   "intl": "2014-033D",
   "group": "resource",
   "gcat": {
    "class": "B",
    "category": "IMG",
    "owner": "ELDEC",
    "state": "E"
   },
   "omm": {
    "OBJECT_NAME": "DEIMOS-2",
    "OBJECT_ID": "2014-033D",
    "EPOCH": "2026-06-15T04:09:50.092416",
    "MEAN_MOTION": 14.93719556,
    "ECCENTRICITY": 0.0001606,
    "INCLINATION": 97.5836,
    "RA_OF_ASC_NODE": 40.7336,
    "ARG_OF_PERICENTER": 46.8088,
    "MEAN_ANOMALY": 313.3266,
    "EPHEMERIS_TYPE": 0,
    "CLASSIFICATION_TYPE": "U",
    "NORAD_CAT_ID": 40013,
    "ELEMENT_SET_NO": 999,
    "REV_AT_EPOCH": 63742,
    "BSTAR": 0.000096628,
    "MEAN_MOTION_DOT": 0.00000968,
    "MEAN_MOTION_DDOT": 0
   }
  },
  {
   "norad": 25757,
   "name": "DLR-TUBSAT",
   "intl": "1999-029B",
   "group": "resource",
   "gcat": {
    "class": null,
    "category": null,
    "owner": null,
    "state": null
   },
   "omm": {
    "OBJECT_NAME": "DLR-TUBSAT",
    "OBJECT_ID": "1999-029B",
    "EPOCH": "2026-06-15T05:26:28.986432",
    "MEAN_MOTION": 14.52426415,
    "ECCENTRICITY": 0.0014175,
    "INCLINATION": 98.6696,
    "RA_OF_ASC_NODE": 161.6663,
    "ARG_OF_PERICENTER": 1.2101,
    "MEAN_ANOMALY": 358.9126,
    "EPHEMERIS_TYPE": 0,
    "CLASSIFICATION_TYPE": "U",
    "NORAD_CAT_ID": 25757,
    "ELEMENT_SET_NO": 999,
    "REV_AT_EPOCH": 43296,
    "BSTAR": 0.000026896,
    "MEAN_MOTION_DOT": 6.1e-7,
    "MEAN_MOTION_DDOT": 0
   }
  },
  {
   "norad": 28054,
   "name": "DMSP 5D-3 F16 (USA 172)",
   "intl": "2003-048A",
   "group": "weather",
   "gcat": {
    "class": null,
    "category": null,
    "owner": null,
    "state": null
   },
   "omm": {
    "OBJECT_NAME": "DMSP 5D-3 F16 (USA 172)",
    "OBJECT_ID": "2003-048A",
    "EPOCH": "2026-06-15T04:20:50.648064",
    "MEAN_MOTION": 14.14483047,
    "ECCENTRICITY": 0.0007669,
    "INCLINATION": 98.9891,
    "RA_OF_ASC_NODE": 189.9962,
    "ARG_OF_PERICENTER": 145.4577,
    "MEAN_ANOMALY": 261.218,
    "EPHEMERIS_TYPE": 0,
    "CLASSIFICATION_TYPE": "U",
    "NORAD_CAT_ID": 28054,
    "ELEMENT_SET_NO": 999,
    "REV_AT_EPOCH": 16920,
    "BSTAR": 0.00003069,
    "MEAN_MOTION_DOT": 1.4e-7,
    "MEAN_MOTION_DDOT": 0
   }
  },
  {
   "norad": 29522,
   "name": "DMSP 5D-3 F17 (USA 191)",
   "intl": "2006-050A",
   "group": "weather",
   "gcat": {
    "class": "D",
    "category": "MET",
    "owner": "AFSMC",
    "state": "US"
   },
   "omm": {
    "OBJECT_NAME": "DMSP 5D-3 F17 (USA 191)",
    "OBJECT_ID": "2006-050A",
    "EPOCH": "2026-06-15T04:33:16.971264",
    "MEAN_MOTION": 14.14992901,
    "ECCENTRICITY": 0.0011216,
    "INCLINATION": 98.7378,
    "RA_OF_ASC_NODE": 172.8007,
    "ARG_OF_PERICENTER": 64.6197,
    "MEAN_ANOMALY": 295.6137,
    "EPHEMERIS_TYPE": 0,
    "CLASSIFICATION_TYPE": "U",
    "NORAD_CAT_ID": 29522,
    "ELEMENT_SET_NO": 999,
    "REV_AT_EPOCH": 1214,
    "BSTAR": 0.000040414,
    "MEAN_MOTION_DOT": 3.5e-7,
    "MEAN_MOTION_DDOT": 0
   }
  },
  {
   "norad": 35951,
   "name": "DMSP 5D-3 F18 (USA 210)",
   "intl": "2009-057A",
   "group": "weather",
   "gcat": {
    "class": "D",
    "category": "MET",
    "owner": "AFSMC",
    "state": "US"
   },
   "omm": {
    "OBJECT_NAME": "DMSP 5D-3 F18 (USA 210)",
    "OBJECT_ID": "2009-057A",
    "EPOCH": "2026-06-15T03:51:52.676640",
    "MEAN_MOTION": 14.14895651,
    "ECCENTRICITY": 0.0009867,
    "INCLINATION": 98.9037,
    "RA_OF_ASC_NODE": 146.9345,
    "ARG_OF_PERICENTER": 255.9666,
    "MEAN_ANOMALY": 104.041,
    "EPHEMERIS_TYPE": 0,
    "CLASSIFICATION_TYPE": "U",
    "NORAD_CAT_ID": 35951,
    "ELEMENT_SET_NO": 999,
    "REV_AT_EPOCH": 85930,
    "BSTAR": 0.00012397,
    "MEAN_MOTION_DOT": 0.00000195,
    "MEAN_MOTION_DDOT": 0
   }
  },
  {
   "norad": 35682,
   "name": "DUBAISAT-1",
   "intl": "2009-041B",
   "group": "resource",
   "gcat": {
    "class": null,
    "category": null,
    "owner": null,
    "state": null
   },
   "omm": {
    "OBJECT_NAME": "DUBAISAT-1",
    "OBJECT_ID": "2009-041B",
    "EPOCH": "2026-06-15T02:55:35.626368",
    "MEAN_MOTION": 14.75119894,
    "ECCENTRICITY": 0.0011698,
    "INCLINATION": 98.0049,
    "RA_OF_ASC_NODE": 299.4024,
    "ARG_OF_PERICENTER": 79.6338,
    "MEAN_ANOMALY": 280.6189,
    "EPHEMERIS_TYPE": 0,
    "CLASSIFICATION_TYPE": "U",
    "NORAD_CAT_ID": 35682,
    "ELEMENT_SET_NO": 999,
    "REV_AT_EPOCH": 90479,
    "BSTAR": 0.00010028,
    "MEAN_MOTION_DOT": 0.00000626,
    "MEAN_MOTION_DDOT": 0
   }
  }
 ]
}
